[{"OBJECT_NAME":"OBJECT H","OBJECT_ID":"2025-055H","EPOCH":"2026-03-09T23:29:50.051328","MEAN_MOTION":15.30330066,"ECCENTRICITY":0.00075967,"INCLINATION":97.636,"RA_OF_ASC_NODE":211.9572,"ARG_OF_PERICENTER":140.4354,"MEAN_ANOMALY":219.7441,"EPHEMERIS_TYPE":0,"CLASSIFICATION_TYPE":"U","NORAD_CAT_ID":63298,"ELEMENT_SET_NO":999,"REV_AT_EPOCH":5423,"BSTAR":0.0015582864,"MEAN_MOTION_DOT":0.00045901,"MEAN_MOTION_DDOT":0},{"OBJECT_NAME":"STARLINK-36529","OBJECT_ID":"2026-008N","EPOCH":"2026-03-09T09:16:41.737152","MEAN_MOTION":15.27606518,"ECCENTRICITY":0.00022151,"INCLINATION":42.9927,"RA_OF_ASC_NODE":207.122,"ARG_OF_PERICENTER":130.3915,"MEAN_ANOMALY":229.713,"EPHEMERIS_TYPE":0,"CLASSIFICATION_TYPE":"U","NORAD_CAT_ID":67457,"ELEMENT_SET_NO":999,"REV_AT_EPOCH":952,"BSTAR":0.0012853358,"MEAN_MOTION_DOT":0.00035307,"MEAN_MOTION_DDOT":0}]
